[{"OBJECT_NAME":"STARLINK-31441","OBJECT_ID":"2024-117A","EPOCH":"2026-03-09T22:11:59.474688","MEAN_MOTION":15.30194429,"ECCENTRICITY":0.00012231,"INCLINATION":53.1617,"RA_OF_ASC_NODE":35.9495,"ARG_OF_PERICENTER":77.0731,"MEAN_ANOMALY":283.0406,"EPHEMERIS_TYPE":0,"CLASSIFICATION_TYPE":"U","NORAD_CAT_ID":60091,"ELEMENT_SET_NO":999,"REV_AT_EPOCH":9692,"BSTAR":3.5308859e-5,"MEAN_MOTION_DOT":6.87e-6,"MEAN_MOTION_DDOT":0},{"OBJECT_NAME":"DELTA 1 DEB","OBJECT_ID":"1977-065AY","EPOCH":"2026-03-09T09:31:52.025088","MEAN_MOTION":14.67405758,"ECCENTRICITY":0.02967978,"INCLINATION":29.0245,"RA_OF_ASC_NODE":176.3039,"ARG_OF_PERICENTER":150.7849,"MEAN_ANOMALY":210.9696,"EPHEMERIS_TYPE":0,"CLASSIFICATION_TYPE":"U","NORAD_CAT_ID":10221,"ELEMENT_SET_NO":999,"REV_AT_EPOCH":45797,"BSTAR":0.0014159957,"MEAN_MOTION_DOT":0.00016256,"MEAN_MOTION_DDOT":0}]
